HTV-X1                  
1 66174U 25241A   25321.19111821  .00017975  00000+0  32502-3 0  9998
2 66174  51.6331 268.9357 0004176  79.7820 280.3640 15.49748902  1458
GAOFEN-14 02            
1 66175U 25242A   25318.46556247  .00014152  00000+0  52318-3 0  9992
2 66175  97.4386  30.6022 0011017 193.9078 166.1859 15.27766001  2951
CZ-3B R/B               
1 66176U 25242B   25309.65934494  .00029904  00000+0  58815-3 0  9997
2 66176  97.4571  21.8726 0103778   5.1082 355.1197 15.41457457  1622
STARLINK-35352          
1 66177U 25243A   25321.50003471 -.02017283  00000+0 -27074-1 0  9991
2 66177  53.1600  47.5734 0001149  79.1770 149.7787 15.60816722  4522
STARLINK-35363          
1 66178U 25243B   25321.50003471 -.02017977  00000+0 -27083-1 0  9992
2 66178  53.1600  47.5810 0001199  76.4522 148.6686 15.60817551  4581
STARLINK-35346          
1 66179U 25243C   25321.50003471 -.02017280  00000+0 -27073-1 0  9999
2 66179  53.1598  47.5849 0001189  76.4862 146.7185 15.60816807  4526
STARLINK-35335          
1 66180U 25243D   25321.50003471 -.02018953  00000+0 -27097-1 0  9995
2 66180  53.1596  47.5898 0001212  77.8681 143.4190 15.60818257  4522
STARLINK-35342          
1 66181U 25243E   25321.50003471 -.02017863  00000+0 -27082-1 0  9999
2 66181  53.1595  47.5937 0001185  80.8563 138.5154 15.60817218  4529
STARLINK-35333          
1 66182U 25243F   25321.50003471 -.02015781  00000+0 -27052-1 0  9994
2 66182  53.1595  47.5971 0001190  77.1921 140.2635 15.60815359  4473
STARLINK-35310          
1 66183U 25243G   25321.50003471 -.02016165  00000+0 -27057-1 0  9997
2 66183  53.1600  47.6023 0001226  79.1650 136.3738 15.60815636  4581
STARLINK-35317          
1 66184U 25243H   25321.50003471 -.02017182  00000+0 -27071-1 0  9994
2 66184  53.1597  47.6424 0001280  75.1451 121.2240 15.60816876  4529
STARLINK-35377          
1 66185U 25243J   25321.50003471 -.02016472  00000+0 -27060-1 0  9994
2 66185  53.1598  47.6506 0001263  72.4996 120.0356 15.60816472  4580
