CCSDS_OMM_VERS = 2.0
CREATION_DATE  = 
ORIGINATOR     = 

OBJECT_NAME    = HTV-X1
OBJECT_ID      = 2025-241A
CENTER_NAME    = EARTH
REF_FRAME      = TEME
TIME_SYSTEM    = UTC
MEAN_ELEMENT_THEORY = SGP/SGP4

EPOCH          = 2025-11-17T04:35:12.613344
MEAN_MOTION    = 15.49748902
ECCENTRICITY   = .00041761
INCLINATION    = 51.6331
RA_OF_ASC_NODE = 268.9357
ARG_OF_PERICENTER = 79.7820
MEAN_ANOMALY   = 280.3640

EPHEMERIS_TYPE = 0
CLASSIFICATION_TYPE = U
NORAD_CAT_ID   = 66174
ELEMENT_SET_NO = 999
REV_AT_EPOCH   = 145
BSTAR          = .32501715E-3
MEAN_MOTION_DOT = .17975E-3
MEAN_MOTION_DDOT = 0

CCSDS_OMM_VERS = 2.0
CREATION_DATE  = 
ORIGINATOR     = 

OBJECT_NAME    = GAOFEN-14 02
OBJECT_ID      = 2025-242A
CENTER_NAME    = EARTH
REF_FRAME      = TEME
TIME_SYSTEM    = UTC
MEAN_ELEMENT_THEORY = SGP/SGP4

EPOCH          = 2025-11-14T11:10:24.597408
MEAN_MOTION    = 15.27766001
ECCENTRICITY   = .00110173
INCLINATION    = 97.4386
RA_OF_ASC_NODE = 30.6022
ARG_OF_PERICENTER = 193.9078
MEAN_ANOMALY   = 166.1859

EPHEMERIS_TYPE = 0
CLASSIFICATION_TYPE = U
NORAD_CAT_ID   = 66175
ELEMENT_SET_NO = 999
REV_AT_EPOCH   = 295
BSTAR          = .52317515E-3
MEAN_MOTION_DOT = .14152E-3
MEAN_MOTION_DDOT = 0

CCSDS_OMM_VERS = 2.0
CREATION_DATE  = 
ORIGINATOR     = 

OBJECT_NAME    = CZ-3B R/B
OBJECT_ID      = 2025-242B
CENTER_NAME    = EARTH
REF_FRAME      = TEME
TIME_SYSTEM    = UTC
MEAN_ELEMENT_THEORY = SGP/SGP4

EPOCH          = 2025-11-05T15:49:27.402816
MEAN_MOTION    = 15.41457457
ECCENTRICITY   = .01037786
INCLINATION    = 97.4571
RA_OF_ASC_NODE = 21.8726
ARG_OF_PERICENTER = 5.1082
MEAN_ANOMALY   = 355.1197

EPHEMERIS_TYPE = 0
CLASSIFICATION_TYPE = U
NORAD_CAT_ID   = 66176
ELEMENT_SET_NO = 999
REV_AT_EPOCH   = 162
BSTAR          = .58814912E-3
MEAN_MOTION_DOT = .29904E-3
MEAN_MOTION_DDOT = 0

CCSDS_OMM_VERS = 2.0
CREATION_DATE  = 
ORIGINATOR     = 

OBJECT_NAME    = STARLINK-35352
OBJECT_ID      = 2025-243A
CENTER_NAME    = EARTH
REF_FRAME      = TEME
TIME_SYSTEM    = UTC
MEAN_ELEMENT_THEORY = SGP/SGP4

EPOCH          = 2025-11-17T12:00:02.998944
MEAN_MOTION    = 15.60816722
ECCENTRICITY   = .0001149
INCLINATION    = 53.1600
RA_OF_ASC_NODE = 47.5734
ARG_OF_PERICENTER = 79.1770
MEAN_ANOMALY   = 149.7787

EPHEMERIS_TYPE = 0
CLASSIFICATION_TYPE = U
NORAD_CAT_ID   = 66177
ELEMENT_SET_NO = 999
REV_AT_EPOCH   = 452
BSTAR          = -.27074E-1
MEAN_MOTION_DOT = -.2017283E-1
MEAN_MOTION_DDOT = 0

CCSDS_OMM_VERS = 2.0
CREATION_DATE  = 
ORIGINATOR     = 

OBJECT_NAME    = STARLINK-35363
OBJECT_ID      = 2025-243B
CENTER_NAME    = EARTH
REF_FRAME      = TEME
TIME_SYSTEM    = UTC
MEAN_ELEMENT_THEORY = SGP/SGP4

EPOCH          = 2025-11-17T12:00:02.998944
MEAN_MOTION    = 15.60817551
ECCENTRICITY   = .0001199
INCLINATION    = 53.1600
RA_OF_ASC_NODE = 47.5810
ARG_OF_PERICENTER = 76.4522
MEAN_ANOMALY   = 148.6686

EPHEMERIS_TYPE = 0
CLASSIFICATION_TYPE = U
NORAD_CAT_ID   = 66178
ELEMENT_SET_NO = 999
REV_AT_EPOCH   = 458
BSTAR          = -.27083E-1
MEAN_MOTION_DOT = -.2017977E-1
MEAN_MOTION_DDOT = 0

CCSDS_OMM_VERS = 2.0
CREATION_DATE  = 
ORIGINATOR     = 

OBJECT_NAME    = STARLINK-35346
OBJECT_ID      = 2025-243C
CENTER_NAME    = EARTH
REF_FRAME      = TEME
TIME_SYSTEM    = UTC
MEAN_ELEMENT_THEORY = SGP/SGP4

EPOCH          = 2025-11-17T12:00:02.998944
MEAN_MOTION    = 15.60816807
ECCENTRICITY   = .0001189
INCLINATION    = 53.1598
RA_OF_ASC_NODE = 47.5849
ARG_OF_PERICENTER = 76.4862
MEAN_ANOMALY   = 146.7185

EPHEMERIS_TYPE = 0
CLASSIFICATION_TYPE = U
NORAD_CAT_ID   = 66179
ELEMENT_SET_NO = 999
REV_AT_EPOCH   = 452
BSTAR          = -.27073E-1
MEAN_MOTION_DOT = -.201728E-1
MEAN_MOTION_DDOT = 0

CCSDS_OMM_VERS = 2.0
CREATION_DATE  = 
ORIGINATOR     = 

OBJECT_NAME    = STARLINK-35335
OBJECT_ID      = 2025-243D
CENTER_NAME    = EARTH
REF_FRAME      = TEME
TIME_SYSTEM    = UTC
MEAN_ELEMENT_THEORY = SGP/SGP4

EPOCH          = 2025-11-17T12:00:02.998944
MEAN_MOTION    = 15.60818257
ECCENTRICITY   = .0001212
INCLINATION    = 53.1596
RA_OF_ASC_NODE = 47.5898
ARG_OF_PERICENTER = 77.8681
MEAN_ANOMALY   = 143.4190

EPHEMERIS_TYPE = 0
CLASSIFICATION_TYPE = U
NORAD_CAT_ID   = 66180
ELEMENT_SET_NO = 999
REV_AT_EPOCH   = 452
BSTAR          = -.27097E-1
MEAN_MOTION_DOT = -.2018953E-1
MEAN_MOTION_DDOT = 0

CCSDS_OMM_VERS = 2.0
CREATION_DATE  = 
ORIGINATOR     = 

OBJECT_NAME    = STARLINK-35342
OBJECT_ID      = 2025-243E
CENTER_NAME    = EARTH
REF_FRAME      = TEME
TIME_SYSTEM    = UTC
MEAN_ELEMENT_THEORY = SGP/SGP4

EPOCH          = 2025-11-17T12:00:02.998944
MEAN_MOTION    = 15.60817218
ECCENTRICITY   = .0001185
INCLINATION    = 53.1595
RA_OF_ASC_NODE = 47.5937
ARG_OF_PERICENTER = 80.8563
MEAN_ANOMALY   = 138.5154

EPHEMERIS_TYPE = 0
CLASSIFICATION_TYPE = U
NORAD_CAT_ID   = 66181
ELEMENT_SET_NO = 999
REV_AT_EPOCH   = 452
BSTAR          = -.27082E-1
MEAN_MOTION_DOT = -.2017863E-1
MEAN_MOTION_DDOT = 0

CCSDS_OMM_VERS = 2.0
CREATION_DATE  = 
ORIGINATOR     = 

OBJECT_NAME    = STARLINK-35333
OBJECT_ID      = 2025-243F
CENTER_NAME    = EARTH
REF_FRAME      = TEME
TIME_SYSTEM    = UTC
MEAN_ELEMENT_THEORY = SGP/SGP4

EPOCH          = 2025-11-17T12:00:02.998944
MEAN_MOTION    = 15.60815359
ECCENTRICITY   = .000119
INCLINATION    = 53.1595
RA_OF_ASC_NODE = 47.5971
ARG_OF_PERICENTER = 77.1921
MEAN_ANOMALY   = 140.2635

EPHEMERIS_TYPE = 0
CLASSIFICATION_TYPE = U
NORAD_CAT_ID   = 66182
ELEMENT_SET_NO = 999
REV_AT_EPOCH   = 447
BSTAR          = -.27052E-1
MEAN_MOTION_DOT = -.2015781E-1
MEAN_MOTION_DDOT = 0

CCSDS_OMM_VERS = 2.0
CREATION_DATE  = 
ORIGINATOR     = 

OBJECT_NAME    = STARLINK-35310
OBJECT_ID      = 2025-243G
CENTER_NAME    = EARTH
REF_FRAME      = TEME
TIME_SYSTEM    = UTC
MEAN_ELEMENT_THEORY = SGP/SGP4

EPOCH          = 2025-11-17T12:00:02.998944
MEAN_MOTION    = 15.60815636
ECCENTRICITY   = .0001226
INCLINATION    = 53.1600
RA_OF_ASC_NODE = 47.6023
ARG_OF_PERICENTER = 79.1650
MEAN_ANOMALY   = 136.3738

EPHEMERIS_TYPE = 0
CLASSIFICATION_TYPE = U
NORAD_CAT_ID   = 66183
ELEMENT_SET_NO = 999
REV_AT_EPOCH   = 458
BSTAR          = -.27057E-1
MEAN_MOTION_DOT = -.2016165E-1
MEAN_MOTION_DDOT = 0

CCSDS_OMM_VERS = 2.0
CREATION_DATE  = 
ORIGINATOR     = 

OBJECT_NAME    = STARLINK-35317
OBJECT_ID      = 2025-243H
CENTER_NAME    = EARTH
REF_FRAME      = TEME
TIME_SYSTEM    = UTC
MEAN_ELEMENT_THEORY = SGP/SGP4

EPOCH          = 2025-11-17T12:00:02.998944
MEAN_MOTION    = 15.60816876
ECCENTRICITY   = .000128
INCLINATION    = 53.1597
RA_OF_ASC_NODE = 47.6424
ARG_OF_PERICENTER = 75.1451
MEAN_ANOMALY   = 121.2240

EPHEMERIS_TYPE = 0
CLASSIFICATION_TYPE = U
NORAD_CAT_ID   = 66184
ELEMENT_SET_NO = 999
REV_AT_EPOCH   = 452
BSTAR          = -.27071E-1
MEAN_MOTION_DOT = -.2017182E-1
MEAN_MOTION_DDOT = 0

CCSDS_OMM_VERS = 2.0
CREATION_DATE  = 
ORIGINATOR     = 

OBJECT_NAME    = STARLINK-35377
OBJECT_ID      = 2025-243J
CENTER_NAME    = EARTH
REF_FRAME      = TEME
TIME_SYSTEM    = UTC
MEAN_ELEMENT_THEORY = SGP/SGP4

EPOCH          = 2025-11-17T12:00:02.998944
MEAN_MOTION    = 15.60816472
ECCENTRICITY   = .0001263
INCLINATION    = 53.1598
RA_OF_ASC_NODE = 47.6506
ARG_OF_PERICENTER = 72.4996
MEAN_ANOMALY   = 120.0356

EPHEMERIS_TYPE = 0
CLASSIFICATION_TYPE = U
NORAD_CAT_ID   = 66185
ELEMENT_SET_NO = 999
REV_AT_EPOCH   = 458
BSTAR          = -.2706E-1
MEAN_MOTION_DOT = -.2016472E-1
MEAN_MOTION_DDOT = 0

